{
  "status": "success",
  "hasErrors": false,
  "message": "",
  "length": 155,
  "payload": [
    {
      "_index": "tle",
      "_type": "_doc",
      "_id": "UfD1tXYBwxzt-ZlwIkqN",
      "_score": 9.150519,
      "_source": {
        "right_ascension": "189.1968",
        "anomaly": "246.9624",
        "calc_anomaly": 246.9624,
        "satellite_number": 10976,
        "calc_mean_motion": 2.22240069,
        "ephemeris": "0",
        "set_number": "273",
        "calc_ballistic_coefficient": 5e-8,
        "epoch": "09001.77135992",
        "international_designator": "78068B",
        "calc_inclination": 21.2936,
        "perigee": "162.9861",
        "revolution_number": "24755",
        "line_number": 9679,
        "calc_perigee": 162.9861,
        "drag": "00000+0",
        "text": "1 10976U 78068B   09001.77135992  .00000005  00000-0  00000-0 0  2735\n2 10976  21.2936 189.1968 7150136 162.9861 246.9624  2.22240069247559",
        "calc_drag": 0,
        "timestamp": "2009-01-01 18:30:45",
        "inclination": "021.2936",
        "eccentricity": "7150136",
        "classification": "U",
        "calc_right_ascension": 189.1968,
        "calc_mean_motion_2": 0,
        "ballistic_coefficient": ".00000005",
        "filename": "tle2009.txt",
        "calc_eccentricity": 0.7150136,
        "mean_motion": "02.22240069",
        "mean_motion_2": "00000-0"
      }
    },
    {
      "_index": "tle",
      "_type": "_doc",
      "_id": "4fD1tXYBwxzt-ZlwXVaZ",
      "_score": 9.150519,
      "_source": {
        "right_ascension": "188.7505",
        "anomaly": "244.1331",
        "calc_anomaly": 244.1331,
        "satellite_number": 10976,
        "calc_mean_motion": 2.22240008,
        "ephemeris": "0",
        "set_number": "274",
        "calc_ballistic_coefficient": 2.9e-7,
        "epoch": "09003.11772576",
        "international_designator": "78068B",
        "calc_inclination": 21.2926,
        "perigee": "163.7927",
        "revolution_number": "24758",
        "line_number": 25157,
        "calc_perigee": 163.7927,
        "drag": "00000+0",
        "text": "1 10976U 78068B   09003.11772576  .00000029  00000-0  00000-0 0  2747\n2 10976  21.2926 188.7505 7150482 163.7927 244.1331  2.22240008247587",
        "calc_drag": 0,
        "timestamp": "2009-01-03 02:49:31",
        "inclination": "021.2926",
        "eccentricity": "7150482",
        "classification": "U",
        "calc_right_ascension": 188.7505,
        "calc_mean_motion_2": 0,
        "ballistic_coefficient": ".00000029",
        "filename": "tle2009.txt",
        "calc_eccentricity": 0.7150482,
        "mean_motion": "02.22240008",
        "mean_motion_2": "00000-0"
      }
    },
    {
      "_index": "tle",
      "_type": "_doc",
      "_id": "oPD1tXYBwxzt-Zlw6GjV",
      "_score": 9.150519,
      "_source": {
        "right_ascension": "200.7326",
        "anomaly": "300.3441",
        "calc_anomaly": 300.3441,
        "satellite_number": 10976,
        "calc_mean_motion": 2.22239201,
        "ephemeris": "0",
        "set_number": "0251",
        "calc_ballistic_coefficient": -2.9e-7,
        "epoch": "08333.64054275",
        "international_designator": "78068B",
        "calc_inclination": 21.2294,
        "perigee": "142.3359",
        "revolution_number": "24679",
        "line_number": 197333,
        "calc_perigee": 142.3359,
        "drag": "+00000-0",
        "text": "1 10976U 78068B   08333.64054275 -.00000029  00000-0  00000-0 0  2515\n2 10976  21.2294 200.7326 7154072 142.3359 300.3441  2.22239201246794",
        "calc_drag": 0,
        "timestamp": "2008-11-28 15:22:22",
        "inclination": "021.2294",
        "eccentricity": "7154072",
        "classification": "U",
        "calc_right_ascension": 200.7326,
        "calc_mean_motion_2": 0,
        "ballistic_coefficient": "-.00000029",
        "filename": "tle2009.txt",
        "calc_eccentricity": 0.7154072,
        "mean_motion": "02.22239201",
        "mean_motion_2": "+00000-0"
      }
    },
    {
      "_index": "tle",
      "_type": "_doc",
      "_id": "y_D3tXYBwxzt-ZlwnpPY",
      "_score": 9.150519,
      "_source": {
        "right_ascension": "201.0403",
        "anomaly": "301.3831",
        "calc_anomaly": 301.3831,
        "satellite_number": 10976,
        "calc_mean_motion": 2.22239207,
        "ephemeris": "0",
        "set_number": "0251",
        "calc_ballistic_coefficient": -1.4e-7,
        "epoch": "08332.74190373",
        "international_designator": "78068B",
        "calc_inclination": 21.2282,
        "perigee": "141.7864",
        "revolution_number": "24677",
        "line_number": 168697,
        "calc_perigee": 141.7864,
        "drag": "+00000-0",
        "text": "1 10976U 78068B   08332.74190373 -.00000014  00000-0  00000-0 0  2519\n2 10976  21.2282 201.0403 7154272 141.7864 301.3831  2.22239207246775",
        "calc_drag": 0,
        "timestamp": "2008-11-27 17:48:20",
        "inclination": "021.2282",
        "eccentricity": "7154272",
        "classification": "U",
        "calc_right_ascension": 201.0403,
        "calc_mean_motion_2": 0,
        "ballistic_coefficient": "-.00000014",
        "filename": "tle2009.txt",
        "calc_eccentricity": 0.7154272,
        "mean_motion": "02.22239207",
        "mean_motion_2": "+00000-0"
      }
    },
    {
      "_index": "tle",
      "_type": "_doc",
      "_id": "jvEBtnYBwxzt-ZlwSWAs",
      "_score": 9.150519,
      "_source": {
        "right_ascension": "060.9269",
        "anomaly": "356.4635",
        "calc_anomaly": 356.4635,
        "satellite_number": 10976,
        "calc_mean_motion": 2.22237094,
        "ephemeris": "0",
        "set_number": "0516",
        "calc_ballistic_coefficient": -0.0000017,
        "epoch": "10004.52945828",
        "international_designator": "78068B",
        "calc_inclination": 21.8317,
        "perigee": "030.6891",
        "revolution_number": "25573",
        "line_number": 121513,
        "calc_perigee": 30.6891,
        "drag": "+00000-0",
        "text": "1 10976U 78068B   10004.52945828 -.00000170  00000-0  00000-0 0  5164\n2 10976  21.8317  60.9269 7178602  30.6891 356.4635  2.22237094255732",
        "calc_drag": 0,
        "timestamp": "2010-01-04 12:42:25",
        "inclination": "021.8317",
        "eccentricity": "7178602",
        "classification": "U",
        "calc_right_ascension": 60.9269,
        "calc_mean_motion_2": 0,
        "ballistic_coefficient": "-.00000170",
        "filename": "tle2010.txt",
        "calc_eccentricity": 0.7178602,
        "mean_motion": "02.22237094",
        "mean_motion_2": "+00000-0"
      }
    },
    {
      "_index": "tle",
      "_type": "_doc",
      "_id": "ZWIKtnYBAz3ao6c9joZ_",
      "_score": 9.150519,
      "_source": {
        "right_ascension": "297.9144",
        "anomaly": "024.7696",
        "calc_anomaly": 24.7696,
        "satellite_number": 10976,
        "calc_mean_motion": 2.22243318,
        "ephemeris": "0",
        "set_number": "732",
        "calc_ballistic_coefficient": -1.6e-7,
        "epoch": "11001.78171151",
        "international_designator": "78068B",
        "calc_inclination": 21.7751,
        "perigee": "250.0374",
        "revolution_number": "26379",
        "line_number": 29921,
        "calc_perigee": 250.0374,
        "drag": "00000+0",
        "text": "1 10976U 78068B   11001.78171151 -.00000016  00000-0  00000-0 0  7329\n2 10976  21.7751 297.9144 7167091 250.0374  24.7696  2.22243318263794",
        "calc_drag": 0,
        "timestamp": "2011-01-01 18:45:39",
        "inclination": "021.7751",
        "eccentricity": "7167091",
        "classification": "U",
        "calc_right_ascension": 297.9144,
        "calc_mean_motion_2": 0,
        "ballistic_coefficient": "-.00000016",
        "filename": "tle2011.txt",
        "calc_eccentricity": 0.7167091,
        "mean_motion": "02.22243318",
        "mean_motion_2": "00000-0"
      }
    },
    {
      "_index": "tle",
      "_type": "_doc",
      "_id": "AWIOtnYBAz3ao6c9R-Qd",
      "_score": 9.150519,
      "_source": {
        "right_ascension": "296.8363",
        "anomaly": "023.6598",
        "calc_anomaly": 23.6598,
        "satellite_number": 10976,
        "calc_mean_motion": 2.22243334,
        "ephemeris": "0",
        "set_number": "734",
        "calc_ballistic_coefficient": -9.3e-7,
        "epoch": "11004.93004496",
        "international_designator": "78068B",
        "calc_inclination": 21.7677,
        "perigee": "251.9367",
        "revolution_number": "26386",
        "line_number": 140197,
        "calc_perigee": 251.9367,
        "drag": "00000+0",
        "text": "1 10976U 78068B   11004.93004496 -.00000093  00000-0  00000-0 0  7343\n2 10976  21.7677 296.8363 7166170 251.9367  23.6598  2.22243334263866",
        "calc_drag": 0,
        "timestamp": "2011-01-04 22:19:15",
        "inclination": "021.7677",
        "eccentricity": "7166170",
        "classification": "U",
        "calc_right_ascension": 296.8363,
        "calc_mean_motion_2": 0,
        "ballistic_coefficient": "-.00000093",
        "filename": "tle2011.txt",
        "calc_eccentricity": 0.716617,
        "mean_motion": "02.22243334",
        "mean_motion_2": "00000-0"
      }
    }
  ]
}